0 THOR ABLESTAR DEB
1 00745U 63038E   13283.05493965  .00000204  00000-0  28882-3 0  2747
2 00745 090.1178 308.0374 0019414 099.9580 288.8253 13.53791109464344
0 THOR ABLESTAR DEB
1 00745U 63038E   13284.09666201  .00000218  00000-0  30864-3 0  2756
2 00745 090.1175 308.0499 0019412 097.2284 325.5121 13.53791406464487
0 THOR ABLESTAR DEB
1 00745U 63038E   13285.58760883  .00000212  00000-0  30001-3 0  2760
2 00745 090.1172 308.0677 0019367 093.3183 031.4374 13.53792045464681
0 THOR ABLESTAR DEB
1 00745U 63038E   13287.04612488  .00000218  00000-0  30920-3 0  2777
2 00745 090.1169 308.0851 0019321 089.4739 299.3383 13.53792789464886
0 THOR ABLESTAR DEB
1 00745U 63038E   13288.08793521  .00000247  00000-0  35195-3 0  2782
2 00745 090.1167 308.0974 0019275 086.7228 336.4811 13.53793554465028
0 THOR ABLESTAR DEB
1 00745U 63038E   13289.51132830  .00000197  00000-0  27850-3 0  2795
2 00745 090.1166 308.1141 0019194 082.9385 073.2533 13.53794288465219
0 THOR ABLESTAR DEB
1 00745U 63038E   13290.54552133  .00000210  00000-0  29694-3 0  2808
2 00745 090.1166 308.1262 0019140 080.1709 073.3160 13.53794712465358
0 THOR ABLESTAR DEB
1 00745U 63038E   13291.57467025  .00000212  00000-0  30062-3 0  2811
2 00745 090.1167 308.1383 0019091 077.4296 048.7866 13.53795107465491
0 THOR ABLESTAR DEB
1 00745U 63038E   13293.03291833  .00000228  00000-0  32326-3 0  2829
2 00745 090.1168 308.1552 0019019 073.5144 315.4693 13.53795669465696
0 THOR ABLESTAR DEB
1 00745U 63038E   13294.82597346  .00000252  00000-0  35887-3 0  2838
2 00745 090.1168 308.1763 0018930 068.8114 053.7078 13.53796472465934
0 THOR ABLESTAR DEB
1 00745U 63038E   13295.99552178  .00000260  00000-0  37092-3 0  2841
2 00745 090.1168 308.1901 0018855 065.6472 353.4590 13.53797066466093
